INTELSAT 602 (IS-602)   
1 20315U 89087A   09090.23327024  .00000033  00000-0  10000-3 0  8623
2 20315   6.7175  67.1341 0001133 315.6015  67.7922  1.00272367 68948
INTELSAT 603 (IS-603)   
1 20523U 90021A   09091.08426550 -.00000161  00000-0  10000-3 0  4407
2 20523   6.1975  68.6801 0001581 312.1915 179.0854  1.00270396 62705
SBS-6                   
1 20872U 90091A   09090.44488275 -.00000035  00000-0  10000-3 0   442
2 20872   1.5812  81.9854 0007338 299.9696  60.5490  0.98989992 56013
INTELSAT 605 (IS-605)   
1 21653U 91055A   09089.86923382 -.00000175  00000-0  00000+0 0  7591
2 21653   4.2454  74.4202 0004784 209.7763 150.3694  0.99324183 64528
INTELSAT 601 (IS-601)   
1 21765U 91075A   09091.00416795  .00000120  00000-0  10000-3 0  7494
2 21765   4.2924  73.2658 0000215 272.4360 252.7760  1.00272050 63642
INTELSAT 701 (IS-701)   
1 22871U 93066A   09090.23386385  .00000049  00000-0  10000-3 0  3429
2 22871   0.0009 183.8493 0002490 162.1802 106.8896  1.00271360 56427
INTELSAT 702 (IS-702)   
1 23124U 94034A   09090.70256787  .00000080  00000-0  10000-3 0  1851
2 23124   0.0068 267.8036 0003064 101.3221 127.8262  1.00270992 68342
INTELSAT 2 (IS-2)       
1 23175U 94040A   09088.56019068 -.00000027  00000-0  10000-3 0  4006
2 23175   0.2599  87.2445 0002325 270.8772 199.7249  1.00272645 53231
INTELSAT 704 (IS-704)   
1 23461U 95001A   09090.88716167 -.00000008  00000-0  10000-3 0  9211
2 23461   0.0201 242.9127 0005093 124.1867 207.6571  1.00272810 52123
INTELSAT 705 (IS-705)   
1 23528U 95013A   09090.95483539 -.00000289  00000-0  10000-3 0  8399
2 23528   0.0125 165.6545 0002538 214.6001 102.9198  1.00270756 51301
INTELSAT 706 (IS-706)   
1 23571U 95023A   09092.02326345  .00000077  00000-0  10000-3 0  8988
2 23571   0.0260 270.9119 0003145  93.7444 247.1849  1.00341516 50800
INTELSAT 3R (IS-3R)     
1 23764U 96002A   09088.20000000 -.00000266  00000-0  00000+0 0  6223
2 23764   0.0380 205.8440 0002059 158.4070 211.4780  1.00270261 48384
HGS-3                   
1 23779U 96006A   09090.75907223  .00000148  00000-0  10000-3 0  1755
2 23779   0.0193 168.8323 0002077 226.5437 105.2030  1.00275879 48157
INTELSAT 707 (IS-707)   
1 23816U 96015A   09091.23972249 -.00000293  00000-0  10000-3 0  8301
2 23816   0.0084 332.2044 0003224  49.1939 201.6267  1.00270256 47804
GALAXY 9 (G-9)          
1 23877U 96033A   09090.41675552 -.00000229  00000-0  10000-3 0   608
2 23877   0.5841  81.3089 0001496 286.9790 249.6740  1.00272066 47082
INTELSAT 709 (IS-709)   
1 23915U 96035A   09089.87605867 -.00000187  00000-0  10000-3 0  9111
2 23915   0.0184 117.2362 0003315 268.0916 203.5837  1.00270899 46870
INTELSAT 801 (IS-801)   
1 24742U 97009A   09091.02974236 -.00000231  00000-0  10000-3 0  5982
2 24742   0.5385  84.9165 0004969 282.2845 161.5465  1.00271358 44300
GALAXY 25 (G-25)        
1 24812U 97026A   09090.47251365 -.00000167  00000-0  10000-3 0  9047
2 24812   0.0055 311.5409 0002641  58.7082 255.7247  1.00271757 43420
INTELSAT 802 (IS-802)   
1 24846U 97031A   09091.10000000  .00000148  00000-0  00000+0 0  7927
2 24846   0.0090 357.1850 0002206   4.2580 257.0650  1.00273621 43142
INTELSAT 5 (IS-5)       
1 24916U 97046A   09088.56019022 -.00000029  00000-0  10000-3 0  7419
2 24916   0.0366 114.1187 0001985 302.7374 140.8621  1.00271801 42571
INTELSAT 805 (IS-805)   
1 25371U 98037A   09089.31671119 -.00000286  00000-0  10000-3 0  3399
2 25371   0.0051 163.6523 0003805 168.8328 273.8572  1.00269426 39516
INTELSAT 7 (IS-7)       
1 25473U 98052A   09091.62950279 -.00000036  00000-0  10000-3 0  7558
2 25473   0.0147 172.4990 0003032 194.4607 118.4105  1.00272840 38629
INTELSAT 8 (IS-8)       
1 25522U 98065A   09088.62430284 -.00000055  00000-0  10000-3 0  6192
2 25522   0.0331 265.4516 0002882  98.0915 214.3417  1.00271890 38164
GALAXY 26 (G-26)        
1 25626U 99005A   09089.63261416  .00000109  00000-0  10000-3 0  4606
2 25626   0.0243  54.6755 0002445 321.9496  90.0112  1.00273918 37096
INSAT-2E (APR-1)        
1 25666U 99016A   09090.99843858 -.00000172  00000-0  10000-3 0  3227
2 25666   0.0765 270.4926 0003064  99.5951 261.8532  1.00271674 36729
GALAXY 27 (G-27)        
1 25922U 99052A   09089.50463019  .00000058  00000-0  10000-3 0  4788
2 25922   0.0087 187.8528 0002085 187.7116 225.0952  1.00272214 34834
GALAXY 11 (G-11)        
1 26038U 99071A   09091.10000000  .00000148  00000-0  00000+0 0  6905
2 26038   0.0260  33.9140 0000296 298.1380 286.3680  1.00273039 34079
GALAXY 4R (G-4R)        
1 26298U 00020A   09091.49531637 -.00000239  00000-0  10000-3 0  6475
2 26298   2.4954  77.5123 0006761 300.4980 272.8626  1.00174891 32900
INTELSAT 9 (IS-9)       
1 26451U 00043A   09091.26759951 -.00000293  00000-0  10000-3 0  2114
2 26451   0.0290 256.8570 0000257 235.0199  96.1878  1.00269244 31817
INTELSAT 12 (IS-12)     
1 26590U 00068A   09090.05620432  .00000134  00000-0  10000-3 0  2553
2 26590   0.0022  25.8826 0002883 348.1470 239.7621  1.00272547 30862
INTELSAT 1R (IS-1R)     
1 26608U 00072A   09091.03573157 -.00000281  00000-0  10000-3 0   347
2 26608   0.0568  23.1516 0000683 328.8953 165.2920  1.00269540 30720
INTELSAT 10 (IS-10)     
1 26766U 01019A   09091.62950295 -.00000034  00000-0  10000-3 0  3430
2 26766   0.0242 265.8276 0001037 176.8665  42.5035  1.00272426 28905
INTELSAT 901 (IS-901)   
1 26824U 01024A   09091.00900334 -.00000148  00000-0  00000+0 0  3949
2 26824   0.0070 261.2236 0002749  99.8209 173.6905  1.00270848 28643
INTELSAT 902 (IS-902)   
1 26900U 01039A   09091.59373478  .00000023  00000-0  10000-3 0  3774
2 26900   0.0022 189.3127 0002814 184.4760  92.0203  1.00272415 27826
INTELSAT 904 (IS-904)   
1 27380U 02007A   09090.73836675  .00000043  00000-0  10000-3 0  3807
2 27380   0.0168 238.9956 0002956 131.3033 144.7353  1.00272704 26069
INTELSAT 903 (IS-903)   
1 27403U 02016A   09090.99794646 -.00000245  00000-0  10000-3 0  1940
2 27403   0.0048 191.5912 0002673 175.2981 147.3595  1.00271280 25720
INTELSAT 905 (IS-905)   
1 27438U 02027A   09092.10831711 -.00000197  00000-0  00000+0 0   591
2 27438   0.0252 257.4184 0003450 154.9394 152.6674  1.00270151 25053
GALAXY 3C (G-3C)        
1 27445U 02030A   09091.28944216 -.00000159  00000-0  00000+0 0    55
2 27445   0.0459   9.7888 0000609 235.1673 313.9724  1.00271478 24920
INTELSAT 906 (IS-906)   
1 27513U 02041A   09090.94663890  .00000008  00000-0  10000-3 0  1600
2 27513   0.0317  66.7087 0002721 305.2704 222.3824  1.00270570 24098
INTELSAT 907 (IS-907)   
1 27683U 03007A   09090.54217905 -.00000207  00000-0  10000-3 0  7629
2 27683   0.0114  28.7705 0002916 346.0947 341.8500  1.00270637 22443
GALAXY 12 (G-12)        
1 27715U 03013B   09091.13275238  .00000017  00000-0  10000-3 0   802
2 27715   0.0504  21.4761 0001059  22.1626  70.8409  1.00273067 21971
GALAXY 23 (G-23)        
1 27854U 03034A   09090.42939527  .00000009  00000-0  10000-3 0  9583
2 27854   0.0103 265.9530 0002783 103.0209 213.5293  1.00271070 20721
GALAXY 13 (HORIZONS-1)  
1 27954U 03044A   09091.39626964  .00000039  00000-0  10000-3 0  8740
2 27954   0.0279 200.8977 0000905  77.4809 287.1598  1.00271373 20218
INTELSAT 10-02          
1 28358U 04022A   09086.80184786 -.00000006  00000-0  10000-3 0  6885
2 28358   0.0235 149.3682 0000763 169.1832 154.5034  1.00273900 17559
GALAXY 28 (G-28)        
1 28702U 05022A   09090.46744336 -.00000190  00000-0  10000-3 0  6300
2 28702   0.0048 274.0495 0002432 113.1727 241.0097  1.00271297 13856
GALAXY 14 (G-14)        
1 28790U 05030A   09091.37154799  .00000028  00000-0  10000-3 0  6999
2 28790   0.0432  52.9233 0002348 315.6166 190.0548  1.00272241 13286
GALAXY 15 (G-15)        
1 28884U 05041A   09091.49034416  .00000069  00000-0  10000-3 0  6020
2 28884   0.0273 122.9312 0002047 232.1342 238.4393  1.00273591 12715
GALAXY 16 (G-16)        
1 29236U 06023A   09091.45861921 -.00000136  00000-0  10000-3 0  4932
2 29236   0.0151 171.7546 0003069 198.9262 245.3619  1.00271595 10233
GALAXY 17 (G-17)        
1 31307U 07016B   09090.59318038 -.00000179  00000-0  10000-3 0  3539
2 31307   0.0120 154.5689 0002941 210.5873 306.4765  1.00270963  7038
INTELSAT 11 (IS-11)     
1 32253U 07044B   09088.20000000 -.00000266  00000-0  00000+0 0  2185
2 32253   0.0340 186.4780 0003089 189.6500 199.4980  1.00271787  5465
HORIZONS 2              
1 32388U 07063B   09091.40578578 -.00000261  00000-0  00000+0 0  2029
2 32388   0.0163 242.1938 0002766  99.3578 280.3609  1.00269586  4848
GALAXY 18 (G-18)        
1 32951U 08024A   09090.24103539  .00000021  00000-0  10000-3 0  1538
2 32951   0.0072 164.2628 0002955 207.5156 140.7300  1.00273209  3177
